CSS (TIANHE)            
1 48274U 21035A   24052.07978158  .00038195  00000+0  42486-3 0  9996
2 48274  41.4684  78.6545 0008946 351.8615   8.2078 15.62077118160768
